satname,norad_id,inclination_deg,eccentricity,mean_motion_rev_per_day,perigee_km,apogee_km,l1,l2
STARLINK-1274,45387,53.0335,0.0005032,15.32699453,464.3174404088768,471.2071534613133,1 45387U 20019AD  25335.79529632  .00055804  00000+0  17407-2 0  9992,2 45387  53.0335 205.8909 0005032  74.1668 285.9886 15.32699453315533
STARLINK-1280,45388,53.0524,0.0009958,15.45181966,424.0630708018789,437.62383627314557,1 45388U 20019AE  25335.16039538  .00091685  00000+0  18854-2 0  9999,2 45388  53.0524 238.5769 0009958 101.3714 258.8411 15.45181966315012
STARLINK-1283,45389,53.0523,0.0010076,15.34668604,455.01298262916043,468.79703528561186,1 45389U 20019AF  25335.83510095  .00064007  00000+0  18706-2 0  9990,2 45389  53.0523 216.6193 0010076 108.9486 251.2608 15.34668604315395
STARLINK-1284,45390,53.0547,0.0001329,15.06401213,546.287461941205,548.1282185997488,1 45390U 20019AG  25335.42676248  .00002819  00000+0  20804-3 0  9996,2 45390  53.0547 227.7412 0001329  91.9423 268.1718 15.06401213315190
STARLINK-1297,45395,53.0542,0.0001447,15.0640642,546.1897865436358,548.193976721981,1 45395U 20019AM  25335.39726816  .00001428  00000+0  11474-3 0  9992,2 45395  53.0542 227.8710 0001447  90.6117 269.5038 15.06406420314373
STARLINK-1307,45397,53.0546,0.0001667,15.06412402,546.0190985869431,548.3279971235979,1 45397U 20019AP  25335.85431713  .00001615  00000+0  12727-3 0  9994,2 45397  53.0546 225.8169 0001667 104.3642 255.7533 15.06412402315088
STARLINK-1255,45399,53.0483,0.0007677,15.34653955,456.69740285222724,467.19967018499756,1 45399U 20019AR  25335.84351999  .00067595  00000+0  19761-2 0  9995,2 45399  53.0483 207.6530 0007677 116.4705 243.7085 15.34653955315328
STARLINK-1260,45404,53.0546,0.0001759,15.06396513,546.004074420458,548.4404158028874,1 45404U 20019AW  25335.12542937 -.00001518  00000+0 -83056-4 0  9992,2 45404  53.0546 219.0863 0001759  87.0172 273.1018 15.06396513315008
STARLINK-1263,45405,53.0547,0.0001636,15.06411996,546.0418111608014,548.3077731792,1 45405U 20019AX  25335.84049382  .00002093  00000+0  15934-3 0  9994,2 45405  53.0547 215.8819 0001636  94.6517 265.4659 15.06411996315116
STARLINK-1265,45406,53.0537,0.0001361,15.06396476,546.27981710309,548.1648999204772,1 45406U 20019AY  25335.84787551  .00005955  00000+0  41840-3 0  9997,2 45406  53.0537 215.8491 0001361  94.8413 265.2732 15.06396476315119
STARLINK-1278,45408,53.0538,0.000913,15.37756986,446.5071320477464,458.98032025369685,1 45408U 20019BA  25335.46912274  .00088331  00000+0  23272-2 0  9996,2 45408  53.0538 239.0391 0009130  95.3259 264.8786 15.37756986314769
STARLINK-1296,45412,53.0549,0.0001542,15.06406228,546.1245842767512,548.2603558853252,1 45412U 20019BE  25335.85155156 -.00000092  00000+0  12755-4 0  9997,2 45412  53.0549 215.8335 0001542  97.4745 262.6419 15.06406228315114
STARLINK-1298,45413,53.0462,0.0008897,15.58164672,386.9446390733374,398.9931448975376,1 45413U 20019BF  25335.80511781  .00113210  00000+0  14580-2 0  9995,2 45413  53.0462 181.2829 0008897  71.6736 288.5243 15.58164672315693
STARLINK-1309,45414,53.0534,0.0001487,15.063905,546.2108705628862,548.2704778832003,1 45414U 20019BG  25335.40186012 -.00000018  00000+0  17702-4 0  9990,2 45414  53.0534 217.8517 0001487  92.9812 267.1347 15.06390500315033
STARLINK-1316,45415,53.0545,0.0001542,15.06408474,546.1177017276714,548.2534712133393,1 45415U 20019BH  25335.82575161  .00000921  00000+0  80671-4 0  9991,2 45415  53.0545 215.9454 0001542  94.3340 265.7825 15.06408474315135
STARLINK-1318,45416,53.0474,0.0004803,15.64902634,370.2759768666765,376.76161742541444,1 45416U 20019BJ  25335.83806052  .00088535  00000+0  88387-3 0  9997,2 45416  53.0474 171.0065 0004803 139.5586 220.5786 15.64902634315758
STARLINK-1286,45417,53.0537,0.0005624,15.39288871,444.3718195762176,452.0500957590011,1 45417U 20019BK  25335.14045709  .00040623  00000+0  10308-2 0  9999,2 45417  53.0537 240.6548 0005624  99.3560 260.8080 15.39288871314985
STARLINK-1308,45419,53.054,0.0001493,15.06393457,546.1976538298213,548.2655688971736,1 45419U 20019BM  25335.46175876  .00002605  00000+0  19375-3 0  9997,2 45419  53.0540 247.5786 0001493  98.7393 261.3765 15.06393457314660
STARLINK-1329,45531,53.0535,0.0001428,15.06398172,546.2282199265437,548.2061010747839,1 45531U 20025A   25335.82851279  .00001418  00000+0  11406-3 0  9995,2 45531  53.0535 185.9363 0001428  95.3267 264.7885 15.06398172310346
STARLINK-1338,45532,53.0538,0.0001466,15.06405589,546.1791749237827,548.2096820986226,1 45532U 20025B   25335.83957355  .00002256  00000+0  17029-3 0  9997,2 45532  53.0538 185.8835 0001466  86.0017 274.1139 15.06405589310343
STARLINK-1350,45535,53.0731,0.0002025,15.33250299,464.7365664165118,467.50849152574574,1 45535U 20025E   25335.71750470  .00014253  00000+0  44803-3 0  9996,2 45535  53.0731 132.2822 0002025 106.8338 253.2885 15.33250299311110
STARLINK-1362,45538,53.0536,0.0001476,15.0639389,546.208100060413,548.2524684827304,1 45538U 20025H   25335.80543610  .00004510  00000+0  32151-3 0  9993,2 45538  53.0536 185.7562 0001476  89.3705 270.7453 15.06393890310346
STARLINK-1368,45540,53.0544,0.0001798,15.0640025,545.9656141914384,548.4559692573421,1 45540U 20025K   25335.81009007  .00000527  00000+0  54255-4 0  9998,2 45540  53.0544 186.0157 0001798  92.5659 267.5535 15.06400250310336
STARLINK-1371,45542,53.0532,0.0001847,15.06399567,545.9337728974688,548.4919971449954,1 45542U 20025M   25335.84694807  .00000731  00000+0  67992-4 0  9990,2 45542  53.0532 185.8487 0001847  93.1538 266.9662 15.06399567310349
STARLINK-1372,45543,53.0545,0.0001561,15.06407334,546.1080369746151,548.2701237769088,1 45543U 20025N   25335.81745877  .00000361  00000+0  43114-4 0  9991,2 45543  53.0545 185.9822 0001561  93.9293 266.1875 15.06407334309435
STARLINK-1373,45544,53.0535,0.0001493,15.0639826,546.18293545691,548.2508461286998,1 45544U 20025P   25335.83589492  .00000070  00000+0  23627-4 0  9997,2 45544  53.0535 185.8986 0001493  90.5537 269.5623 15.06398260310340
STARLINK-1294,45551,53.0451,0.0003718,15.65473669,369.3671826494701,374.3864929392539,1 45551U 20025W   25335.64304777  .00089198  00000+0  87056-3 0  9998,2 45551  53.0451 107.4049 0003718 151.2691 208.8529 15.65473669311437
STARLINK-1325,45554,53.0502,0.0006757,15.74014491,342.8925544896383,351.9814952268307,1 45554U 20025Z   25335.91667823  .00166183  00000+0  11239-2 0  9994,2 45554  53.0502  97.9795 0006757 331.6204 104.4062 15.74014491  5895
STARLINK-1327,45555,53.0537,0.000158,15.06399291,546.1195255065304,548.3079363375027,1 45555U 20025AA  25335.80824102  .00000663  00000+0  63425-4 0  9994,2 45555  53.0537 166.0241 0001580  90.7406 269.3764 15.06399291310612
STARLINK-1356,45564,53.0531,0.0001449,15.06403074,546.1986549461444,548.2056182279275,1 45564U 20025AK  25335.81192832  .00000970  00000+0  84013-4 0  9990,2 45564  53.0531 166.0069 0001449  89.5500 270.5655 15.06403074310617
STARLINK-1357,45565,53.0597,0.000909,15.37357186,447.71760521018314,460.1382992933768,1 45565U 20025AL  25335.77780078  .00090751  00000+0  24211-2 0  9999,2 45565  53.0597 144.9651 0009090 124.5559 235.6303 15.37357186310917
STARLINK-1361,45567,53.0531,0.000172,15.06405306,546.004138705327,548.3864530151031,1 45567U 20025AN  25335.83034211  .00003390  00000+0  24632-3 0  9990,2 45567  53.0531 165.9221 0001720  87.4512 272.6674 15.06405306310625
STARLINK-1363,45568,53.0517,0.0006659,15.47006278,420.95885839068706,430.0199280211591,1 45568U 20025AP  25335.74495535  .00113796  00000+0  21919-2 0  9997,2 45568  53.0517 155.6209 0006659 165.3744 194.7457 15.47006278310758
STARLINK-1366,45569,53.0513,0.0004545,15.44337674,430.2290720793753,436.42069092966267,1 45569U 20025AQ  25335.74393416  .00108777  00000+0  22983-2 0  9998,2 45569  53.0513 155.4941 0004545 166.3049 193.8081 15.44337674310754
STARLINK-1376,45570,53.0538,0.0001443,15.06401893,546.2064292122805,548.205083131712,1 45570U 20025AR  25335.82666791  .00000462  00000+0  49940-4 0  9994,2 45570  53.0538 165.9439 0001443  90.3849 269.7305 15.06401893310619
STARLINK-1320,45572,53.0535,0.0006669,15.47058468,420.7991424427282,429.87361523542313,1 45572U 20025AT  25335.91667823  .00095329  00000+0  18386-2 0  9997,2 45572  53.0535 100.3846 0006669 108.2039 321.6255 15.47058468  5959
STARLINK-1321,45573,53.0547,0.0001393,15.06395945,546.2592831717857,548.1886887424735,1 45573U 20025AU  25335.81284465 -.00000943  00000+0 -44437-4 0  9992,2 45573  53.0547 156.0053 0001393  92.9409 267.1739 15.06395945310454
STARLINK-1328,45576,53.0446,0.0004839,15.81159016,323.9172072768815,330.40659555367165,1 45576U 20025AX  25335.91667823  .00236139  00000+0  11515-2 0  9994,2 45576  53.0446 116.5629 0004839 163.1606  38.6819 15.81159016  5915
STARLINK-1331,45578,53.0545,0.0001193,15.06393833,546.4042626316941,548.0566553074041,1 45578U 20025AZ  25335.79072235 -.00004411  00000+0 -27745-3 0  9990,2 45578  53.0545 156.1039 0001193  89.6500 270.4626 15.06393833310765
STARLINK-1333,45580,53.0534,0.0001314,15.06403524,546.2907680255576,548.1107467882039,1 45580U 20025BB  25335.79718519  .00001820  00000+0  14103-3 0  9998,2 45580  53.0534 166.0722 0001314  90.6563 269.4576 15.06403524310616
STARLINK-1335,45581,53.0544,0.0001188,15.06401418,546.3844810835344,548.0299428683002,1 45581U 20025BC  25335.80179196  .00000806  00000+0  72965-4 0  9997,2 45581  53.0544 156.0564 0001188  94.9440 265.1685 15.06401418310750
STARLINK-1337,45582,53.054,0.0001301,15.06397783,546.3173640009136,548.1193414636946,1 45582U 20025BD  25335.82390841  .00000563  00000+0  56714-4 0  9996,2 45582  53.0540 155.9594 0001301 103.0202 257.0932 15.06397783310757
STARLINK-1347,45586,53.0528,0.0008309,15.36251252,451.52696843657486,462.8859421906154,1 45586U 20025BH  25335.72823852  .00088086  00000+0  24369-2 0  9997,2 45586  53.0528 135.8491 0008309 127.8483 232.3272 15.36251252311027
